OPS 3165 (DSP 5)        
1 08482U 75118A   26064.65574836  .00000061  00000+0  00000+0 0  9991
2 08482   2.5582 260.5955 0034839  25.2972 119.1606  1.00462880 25417
RADUGA 1                
1 08513U 75123A   26064.67022175 -.00000130  00000+0  00000+0 0  9996
2 08513   3.0697 268.2110 0004349 301.1641 274.4080  1.00248278193774
TITAN 3C TRANSTAGE R/B  
1 08516U 75118C   26064.12917392  .00000057  00000+0  00000+0 0  9994
2 08516   2.5369 260.9112 0010983 212.6866 146.6645  1.00552035 24739
CTS                     
1 08585U 76004A   26064.56405461 -.00000140  00000+0  00000+0 0  9996
2 08585   4.1972 273.5123 0011510 291.4202  64.5088  1.00202063121258
INTELSAT 4A-F2          
1 08620U 76010A   26064.75687664  .00000086  00000+0  00000+0 0  9999
2 08620   8.1200 304.5992 0006803 315.5606 208.8138  0.99687632619583
LES-8                   
1 08746U 76023A   26064.42027397 -.00000121  00000+0  00000+0 0  9998
2 08746  22.2065  38.3512 0032077 156.9184  15.7939  1.00269798128646
LES-9                   
1 08747U 76023B   26064.42018729 -.00000122  00000+0  00000+0 0  9999
2 08747  22.1680  38.3632 0023904 180.9196 351.7550  1.00275904128638
COMSTAR 1               
1 08838U 76042A   26064.43518069 -.00000262  00000+0  00000+0 0  9999
2 08838   8.1892 305.3516 0005822 356.4268 350.4560  0.99829442119530
TITAN 3C TRANSTAGE R/B  
1 08918U 76059C   26064.22972752  .00000126  00000+0  00000+0 0  9994
2 08918   2.9969 263.6480 0007962 274.5245  84.9040  1.00541765 24409
PALAPA 1                
1 09009U 76066A   26064.60678147 -.00000372  00000+0  00000+0 0  9991
2 09009   8.1093 305.7233 0002615 268.2868 287.0269  1.00090981126908
COMSTAR 2               
1 09047U 76073A   26064.67065509 -.00000098  00000+0  00000+0 0  9995
2 09047   8.1375 305.8318 0001750   8.0502 172.3502  0.99965288 46176
RADUGA 2                
1 09416U 76092A   26064.66718840  .00000010  00000+0  00000+0 0  9991
2 09416   3.7443 271.1715 0029828  37.0908 158.9552  1.00266952128303
KIKU-2 (ETS-II)         
1 09852U 77014A   26064.40682459  .00000057  00000+0  00000+0 0  9999
2 09852   5.5343 284.2992 0001497  47.0562 167.9282  1.00018556126186
TITAN 3C TRANSTAGE R/B  
1 09855U 77007C   26063.68158497  .00000085  00000+0  00000+0 0  9994
2 09855   3.6629 269.6818 0017381  44.3245 315.4494  1.00303566 24311
PALAPA 2                
1 09862U 77018A   26064.67316843 -.00000240  00000+0  00000+0 0  9999
2 09862   8.8650 310.9715 0003021  87.5346 102.5050  1.00028705142079
RADUGA 3                
1 10159U 77071A   26064.66259506  .00000136  00000+0  00000+0 0  9993
2 10159   4.3832 274.9101 0008667 305.5663 222.2282  1.00313396176007
SIRIO                   
1 10294U 77080A   26064.66952843 -.00000109  00000+0  00000+0 0  9998
2 10294   7.4546 299.9316 0005455 149.1557  31.0727  1.00271142116886
