[{"OBJECT_NAME":"OPS 3165 (DSP 5)","OBJECT_ID":"1975-118A","EPOCH":"2026-03-05T15:44:16.658304","MEAN_MOTION":1.0046288,"ECCENTRICITY":0.0034839,"INCLINATION":2.5582,"RA_OF_ASC_NODE":260.5955,"ARG_OF_PERICENTER":25.2972,"MEAN_ANOMALY":119.1606,"EPHEMERIS_TYPE":0,"CLASSIFICATION_TYPE":"U","NORAD_CAT_ID":8482,"ELEMENT_SET_NO":999,"REV_AT_EPOCH":2541,"BSTAR":0,"MEAN_MOTION_DOT":6.1e-7,"MEAN_MOTION_DDOT":0},{"OBJECT_NAME":"RADUGA 1","OBJECT_ID":"1975-123A","EPOCH":"2026-03-05T16:05:07.159200","MEAN_MOTION":1.00248278,"ECCENTRICITY":0.0004349,"INCLINATION":3.0697,"RA_OF_ASC_NODE":268.211,"ARG_OF_PERICENTER":301.1641,"MEAN_ANOMALY":274.408,"EPHEMERIS_TYPE":0,"CLASSIFICATION_TYPE":"U","NORAD_CAT_ID":8513,"ELEMENT_SET_NO":999,"REV_AT_EPOCH":19377,"BSTAR":0,"MEAN_MOTION_DOT":-1.3e-6,"MEAN_MOTION_DDOT":0},{"OBJECT_NAME":"TITAN 3C TRANSTAGE R/B","OBJECT_ID":"1975-118C","EPOCH":"2026-03-05T03:06:00.626688","MEAN_MOTION":1.00552035,"ECCENTRICITY":0.00109832,"INCLINATION":2.5369,"RA_OF_ASC_NODE":260.9112,"ARG_OF_PERICENTER":212.6866,"MEAN_ANOMALY":146.6645,"EPHEMERIS_TYPE":0,"CLASSIFICATION_TYPE":"U","NORAD_CAT_ID":8516,"ELEMENT_SET_NO":999,"REV_AT_EPOCH":2473,"BSTAR":0,"MEAN_MOTION_DOT":5.7e-7,"MEAN_MOTION_DDOT":0},{"OBJECT_NAME":"CTS","OBJECT_ID":"1976-004A","EPOCH":"2026-03-05T13:32:14.318304","MEAN_MOTION":1.00202063,"ECCENTRICITY":0.001151,"INCLINATION":4.1972,"RA_OF_ASC_NODE":273.5123,"ARG_OF_PERICENTER":291.4202,"MEAN_ANOMALY":64.5088,"EPHEMERIS_TYPE":0,"CLASSIFICATION_TYPE":"U","NORAD_CAT_ID":8585,"ELEMENT_SET_NO":999,"REV_AT_EPOCH":12125,"BSTAR":0,"MEAN_MOTION_DOT":-1.4e-6,"MEAN_MOTION_DDOT":0},{"OBJECT_NAME":"INTELSAT 4A-F2","OBJECT_ID":"1976-010A","EPOCH":"2026-03-05T18:09:54.141696","MEAN_MOTION":0.99687632,"ECCENTRICITY":0.0006803,"INCLINATION":8.12,"RA_OF_ASC_NODE":304.5992,"ARG_OF_PERICENTER":315.5606,"MEAN_ANOMALY":208.8138,"EPHEMERIS_TYPE":0,"CLASSIFICATION_TYPE":"U","NORAD_CAT_ID":8620,"ELEMENT_SET_NO":999,"REV_AT_EPOCH":61958,"BSTAR":0,"MEAN_MOTION_DOT":8.6e-7,"MEAN_MOTION_DDOT":0},{"OBJECT_NAME":"LES-8","OBJECT_ID":"1976-023A","EPOCH":"2026-03-05T10:05:11.671008","MEAN_MOTION":1.00269798,"ECCENTRICITY":0.0032077,"INCLINATION":22.2065,"RA_OF_ASC_NODE":38.3512,"ARG_OF_PERICENTER":156.9184,"MEAN_ANOMALY":15.7939,"EPHEMERIS_TYPE":0,"CLASSIFICATION_TYPE":"U","NORAD_CAT_ID":8746,"ELEMENT_SET_NO":999,"REV_AT_EPOCH":12864,"BSTAR":0,"MEAN_MOTION_DOT":-1.21e-6,"MEAN_MOTION_DDOT":0},{"OBJECT_NAME":"LES-9","OBJECT_ID":"1976-023B","EPOCH":"2026-03-05T10:05:04.181856","MEAN_MOTION":1.00275904,"ECCENTRICITY":0.0023904,"INCLINATION":22.168,"RA_OF_ASC_NODE":38.3632,"ARG_OF_PERICENTER":180.9196,"MEAN_ANOMALY":351.755,"EPHEMERIS_TYPE":0,"CLASSIFICATION_TYPE":"U","NORAD_CAT_ID":8747,"ELEMENT_SET_NO":999,"REV_AT_EPOCH":12863,"BSTAR":0,"MEAN_MOTION_DOT":-1.22e-6,"MEAN_MOTION_DDOT":0},{"OBJECT_NAME":"COMSTAR 1","OBJECT_ID":"1976-042A","EPOCH":"2026-03-05T10:26:39.611616","MEAN_MOTION":0.99829442,"ECCENTRICITY":0.0005822,"INCLINATION":8.1892,"RA_OF_ASC_NODE":305.3516,"ARG_OF_PERICENTER":356.4268,"MEAN_ANOMALY":350.456,"EPHEMERIS_TYPE":0,"CLASSIFICATION_TYPE":"U","NORAD_CAT_ID":8838,"ELEMENT_SET_NO":999,"REV_AT_EPOCH":11953,"BSTAR":0,"MEAN_MOTION_DOT":-2.62e-6,"MEAN_MOTION_DDOT":0},{"OBJECT_NAME":"TITAN 3C TRANSTAGE R/B","OBJECT_ID":"1976-059C","EPOCH":"2026-03-05T05:30:48.457728","MEAN_MOTION":1.00541765,"ECCENTRICITY":0.00079624,"INCLINATION":2.9969,"RA_OF_ASC_NODE":263.648,"ARG_OF_PERICENTER":274.5245,"MEAN_ANOMALY":84.904,"EPHEMERIS_TYPE":0,"CLASSIFICATION_TYPE":"U","NORAD_CAT_ID":8918,"ELEMENT_SET_NO":999,"REV_AT_EPOCH":2440,"BSTAR":0,"MEAN_MOTION_DOT":1.26e-6,"MEAN_MOTION_DDOT":0},{"OBJECT_NAME":"PALAPA 1","OBJECT_ID":"1976-066A","EPOCH":"2026-03-05T14:33:45.919008","MEAN_MOTION":1.00090981,"ECCENTRICITY":0.0002615,"INCLINATION":8.1093,"RA_OF_ASC_NODE":305.7233,"ARG_OF_PERICENTER":268.2868,"MEAN_ANOMALY":287.0269,"EPHEMERIS_TYPE":0,"CLASSIFICATION_TYPE":"U","NORAD_CAT_ID":9009,"ELEMENT_SET_NO":999,"REV_AT_EPOCH":12690,"BSTAR":0,"MEAN_MOTION_DOT":-3.72e-6,"MEAN_MOTION_DDOT":0},{"OBJECT_NAME":"COMSTAR 2","OBJECT_ID":"1976-073A","EPOCH":"2026-03-05T16:05:44.599776","MEAN_MOTION":0.99965288,"ECCENTRICITY":0.000175,"INCLINATION":8.1375,"RA_OF_ASC_NODE":305.8318,"ARG_OF_PERICENTER":8.0502,"MEAN_ANOMALY":172.3502,"EPHEMERIS_TYPE":0,"CLASSIFICATION_TYPE":"U","NORAD_CAT_ID":9047,"ELEMENT_SET_NO":999,"REV_AT_EPOCH":4617,"BSTAR":0,"MEAN_MOTION_DOT":-9.8e-7,"MEAN_MOTION_DDOT":0},{"OBJECT_NAME":"RADUGA 2","OBJECT_ID":"1976-092A","EPOCH":"2026-03-05T16:00:45.077760","MEAN_MOTION":1.00266952,"ECCENTRICITY":0.0029828,"INCLINATION":3.7443,"RA_OF_ASC_NODE":271.1715,"ARG_OF_PERICENTER":37.0908,"MEAN_ANOMALY":158.9552,"EPHEMERIS_TYPE":0,"CLASSIFICATION_TYPE":"U","NORAD_CAT_ID":9416,"ELEMENT_SET_NO":999,"REV_AT_EPOCH":12830,"BSTAR":0,"MEAN_MOTION_DOT":1.0e-7,"MEAN_MOTION_DDOT":0},{"OBJECT_NAME":"KIKU-2 (ETS-II)","OBJECT_ID":"1977-014A","EPOCH":"2026-03-05T09:45:49.644576","MEAN_MOTION":1.00018556,"ECCENTRICITY":0.0001497,"INCLINATION":5.5343,"RA_OF_ASC_NODE":284.2992,"ARG_OF_PERICENTER":47.0562,"MEAN_ANOMALY":167.9282,"EPHEMERIS_TYPE":0,"CLASSIFICATION_TYPE":"U","NORAD_CAT_ID":9852,"ELEMENT_SET_NO":999,"REV_AT_EPOCH":12618,"BSTAR":0,"MEAN_MOTION_DOT":5.7e-7,"MEAN_MOTION_DDOT":0},{"OBJECT_NAME":"TITAN 3C TRANSTAGE R/B","OBJECT_ID":"1977-007C","EPOCH":"2026-03-04T16:21:28.941408","MEAN_MOTION":1.00303566,"ECCENTRICITY":0.0017381,"INCLINATION":3.6629,"RA_OF_ASC_NODE":269.6818,"ARG_OF_PERICENTER":44.3245,"MEAN_ANOMALY":315.4494,"EPHEMERIS_TYPE":0,"CLASSIFICATION_TYPE":"U","NORAD_CAT_ID":9855,"ELEMENT_SET_NO":999,"REV_AT_EPOCH":2431,"BSTAR":0,"MEAN_MOTION_DOT":8.5e-7,"MEAN_MOTION_DDOT":0},{"OBJECT_NAME":"PALAPA 2","OBJECT_ID":"1977-018A","EPOCH":"2026-03-05T16:09:21.752352","MEAN_MOTION":1.00028705,"ECCENTRICITY":0.0003021,"INCLINATION":8.865,"RA_OF_ASC_NODE":310.9715,"ARG_OF_PERICENTER":87.5346,"MEAN_ANOMALY":102.505,"EPHEMERIS_TYPE":0,"CLASSIFICATION_TYPE":"U","NORAD_CAT_ID":9862,"ELEMENT_SET_NO":999,"REV_AT_EPOCH":14207,"BSTAR":0,"MEAN_MOTION_DOT":-2.4e-6,"MEAN_MOTION_DDOT":0},{"OBJECT_NAME":"RADUGA 3","OBJECT_ID":"1977-071A","EPOCH":"2026-03-05T15:54:08.213184","MEAN_MOTION":1.00313396,"ECCENTRICITY":0.0008667,"INCLINATION":4.3832,"RA_OF_ASC_NODE":274.9101,"ARG_OF_PERICENTER":305.5663,"MEAN_ANOMALY":222.2282,"EPHEMERIS_TYPE":0,"CLASSIFICATION_TYPE":"U","NORAD_CAT_ID":10159,"ELEMENT_SET_NO":999,"REV_AT_EPOCH":17600,"BSTAR":0,"MEAN_MOTION_DOT":1.36e-6,"MEAN_MOTION_DDOT":0},{"OBJECT_NAME":"SIRIO","OBJECT_ID":"1977-080A","EPOCH":"2026-03-05T16:04:07.256352","MEAN_MOTION":1.00271142,"ECCENTRICITY":0.0005455,"INCLINATION":7.4546,"RA_OF_ASC_NODE":299.9316,"ARG_OF_PERICENTER":149.1557,"MEAN_ANOMALY":31.0727,"EPHEMERIS_TYPE":0,"CLASSIFICATION_TYPE":"U","NORAD_CAT_ID":10294,"ELEMENT_SET_NO":999,"REV_AT_EPOCH":11688,"BSTAR":0,"MEAN_MOTION_DOT":-1.09e-6,"MEAN_MOTION_DDOT":0}]
